NORAD_CAT_ID,OBJECT_NAME,OBJECT_TYPE,EPOCH,MEAN_MOTION,ECCENTRICITY,INCLINATION,RA_OF_ASC_NODE,ARG_OF_PERICENTER,MEAN_ANOMALY,BSTAR,MEAN_MOTION_DOT,MEAN_MOTION_DDOT,TLE_LINE0,TLE_LINE1,TLE_LINE2,SEMIMAJOR_AXIS,PERIOD,APOGEE,PERIGEE,DECAYED
49132.0,STARLINK-3090,PAYLOAD,2024-03-20 20:37:37,14.98334158,0.000272,70.0006,306.9096,233.6361,126.4547,-0.00015883,-1.988e-05,0.0,0 STARLINK-3090,1 49132U 21082C   24080.85945916 -.00001988  00000-0 -15883-3 0  9999,2 49132  70.0006 306.9096 0002720 233.6361 126.4547 14.98334158138302,6950.18,96.107,573.935,570.155,0.0
49132.0,STARLINK-3090,PAYLOAD,2024-03-20 22:13:45,14.98319304,0.0002654,69.9996,306.7388,266.024,94.0616,1.1398e-05,4.3e-07,0.0,0 STARLINK-3090,1 49132U 21082C   24080.92622492  .00000043  00000-0  11398-4 0  9995,2 49132  69.9996 306.7388 0002654 266.0240  94.0616 14.98319304138315,6950.226,96.108,573.936,570.246,0.0
49132.0,STARLINK-3090,PAYLOAD,2024-03-21 01:26:01,14.98325661,0.0002558,69.9996,306.402,265.5975,94.4892,-0.00010578,-1.355e-05,0.0,0 STARLINK-3090,1 49132U 21082C   24081.05974480 -.00001355  00000-0 -10578-3 0  9994,2 49132  69.9996 306.4020 0002558 265.5975  94.4892 14.98325661138332,6950.206,96.107,573.849,570.293,0.0
49132.0,STARLINK-3090,PAYLOAD,2024-03-21 14:15:05,14.9833289,0.0003066,69.9982,305.0545,265.0471,95.0338,-5.357e-05,-7.32e-06,0.0,0 STARLINK-3090,1 49132U 21082C   24081.59381801 -.00000732  00000-0 -53570-4 0  9990,2 49132  69.9982 305.0545 0003066 265.0471  95.0338 14.98332890138418,6950.184,96.107,574.18,569.918,0.0
49132.0,STARLINK-3090,PAYLOAD,2024-03-21 20:39:37,14.98335411,0.000299,69.9982,304.3811,263.1721,96.9098,-1.6656e-05,-2.92e-06,0.0,0 STARLINK-3090,1 49132U 21082C   24081.86085497 -.00000292  00000-0 -16656-4 0  9997,2 49132  69.9982 304.3811 0002990 263.1721  96.9098 14.98335411138457,6950.176,96.107,574.119,569.963,0.0
49132.0,STARLINK-3090,PAYLOAD,2024-03-21 22:15:45,14.98343431,0.0002735,69.9984,304.2125,255.1406,104.945,-1.9621e-05,-3.27e-06,0.0,0 STARLINK-3090,1 49132U 21082C   24081.92760937 -.00000327  00000-0 -19621-4 0  9997,2 49132  69.9984 304.2125 0002735 255.1406 104.9450 14.98343431138468,6950.151,96.106,573.917,570.115,0.0
49132.0,STARLINK-3090,PAYLOAD,2024-03-21 23:51:53,14.98343443,0.0002793,69.9984,304.0441,261.5283,98.5559,3.2848e-05,2.99e-06,0.0,0 STARLINK-3090,1 49132U 21082C   24081.99436783  .00000299  00000-0  32848-4 0  9995,2 49132  69.9984 304.0441 0002793 261.5283  98.5559 14.98343443138477,6950.151,96.106,573.957,570.075,0.0
49132.0,STARLINK-3090,PAYLOAD,2024-03-22 20:41:38,14.98328189,0.0002707,69.9985,301.8554,264.2304,95.8546,0.00012518,1.401e-05,0.0,0 STARLINK-3090,1 49132U 21082C   24082.86225430  .00001401  00000-0  12518-3 0  9994,2 49132  69.9985 301.8554 0002707 264.2304  95.8546 14.98328189138608,6950.198,96.107,573.945,570.182,0.0
49132.0,STARLINK-3090,PAYLOAD,2024-03-22 22:17:46,14.9832901,0.0002697,69.9985,301.6871,264.2838,95.8014,0.00013286,1.493e-05,0.0,0 STARLINK-3090,1 49132U 21082C   24082.92901367  .00001493  00000-0  13286-3 0  9995,2 49132  69.9985 301.6871 0002697 264.2838  95.8014 14.98329010138613,6950.196,96.107,573.935,570.186,0.0
49132.0,STARLINK-3090,PAYLOAD,2024-03-23 20:43:40,14.98329329,0.0002715,69.9984,299.3306,253.7506,106.3354,-3.947e-05,-5.64e-06,0.0,0 STARLINK-3090,1 49132U 21082C   24083.86365797 -.00000564  00000-0 -39470-4 0  9994,2 49132  69.9984 299.3306 0002715 253.7506 106.3354 14.98329329138757,6950.195,96.107,573.947,570.173,0.0
49132.0,STARLINK-3090,PAYLOAD,2024-03-23 22:19:48,14.98328995,0.0002649,69.9989,299.1627,245.0091,115.0794,-3.1914e-05,-4.74e-06,0.0,0 STARLINK-3090,1 49132U 21082C   24083.93041767 -.00000474  00000-0 -31914-4 0  9995,2 49132  69.9989 299.1627 0002649 245.0091 115.0794 14.98328995138769,6950.196,96.107,573.902,570.22,0.0
49132.0,STARLINK-3090,PAYLOAD,2024-03-23 23:55:58,14.98301153,0.0002486,69.9989,298.9942,261.2126,98.8751,-0.0003658,-4.451e-05,0.0,0 STARLINK-3090,1 49132U 21082C   24083.99720414 -.00004451  00000-0 -36580-3 0  9996,2 49132  69.9989 298.9942 0002486 261.2126  98.8751 14.98301153138773,6950.282,96.109,573.875,570.419,0.0
49132.0,STARLINK-3090,PAYLOAD,2024-03-24 07:56:38,14.9830637,0.0002706,69.9985,298.1502,271.0195,89.0654,-0.00034758,-4.235e-05,0.0,0 STARLINK-3090,1 49132U 21082C   24084.33100501 -.00004235  00000-0 -34758-3 0  9999,2 49132  69.9985 298.1502 0002706 271.0195  89.0654 14.98306370138829,6950.266,96.109,574.012,570.25,0.0
49132.0,STARLINK-3090,PAYLOAD,2024-03-24 14:21:11,14.98303382,0.0002676,69.9982,297.4781,264.7787,95.3067,-0.00025919,-3.182e-05,0.0,0 STARLINK-3090,1 49132U 21082C   24084.59804909 -.00003182  00000-0 -25919-3 0  9999,2 49132  69.9982 297.4781 0002676 264.7787  95.3067 14.98303382138861,6950.275,96.109,574.0,570.28,0.0
49132.0,STARLINK-3090,PAYLOAD,2024-03-24 20:45:41,14.98337434,0.0002712,69.9984,296.8049,264.331,95.7539,0.00015311,1.735e-05,0.0,0 STARLINK-3090,1 49132U 21082C   24084.86506285  .00001735  00000-0  15311-3 0  9990,2 49132  69.9984 296.8049 0002712 264.3310  95.7539 14.98337434138900,6950.17,96.107,573.92,570.15,0.0
49132.0,STARLINK-3090,PAYLOAD,2024-03-24 22:21:50,14.98329459,0.0002829,69.9979,296.636,267.4283,92.6553,6.638e-05,6.99e-06,0.0,0 STARLINK-3090,1 49132U 21082C   24084.93183034  .00000699  00000-0  66380-4 0  9992,2 49132  69.9979 296.6360 0002829 267.4283  92.6553 14.98329459138911,6950.195,96.107,574.026,570.093,0.0
49132.0,STARLINK-3090,PAYLOAD,2024-03-24 23:57:58,14.98327229,0.0002777,69.9983,296.468,268.356,91.7281,0.00011279,1.253e-05,0.0,0 STARLINK-3090,1 49132U 21082C   24084.99859128  .00001253  00000-0  11279-3 0  9995,2 49132  69.9983 296.4680 0002777 268.3560  91.7281 14.98327229138921,6950.201,96.107,573.997,570.136,0.0
49132.0,STARLINK-3090,PAYLOAD,2024-03-25 07:58:37,14.98336826,0.0002992,69.9983,295.6234,270.0239,90.0577,6.4312e-05,6.75e-06,0.0,0 STARLINK-3090,1 49132U 21082C   24085.33238390  .00000675  00000-0  64312-4 0  9990,2 49132  69.9983 295.6234 0002992 270.0239  90.0577 14.98336826138977,6950.172,96.107,574.116,569.957,0.0
49132.0,STARLINK-3090,PAYLOAD,2024-03-25 22:23:49,14.98343325,0.0003149,69.9974,294.111,271.501,88.5788,0.00031451,3.663e-05,0.0,0 STARLINK-3090,1 49132U 21082C   24085.93321473  .00003663  00000-0  31451-3 0  9998,2 49132  69.9974 294.1110 0003149 271.5010  88.5788 14.98343325139061,6950.152,96.106,574.205,569.828,0.0
49132.0,STARLINK-3090,PAYLOAD,2024-03-25 23:59:57,14.98345776,0.0002916,69.9978,293.943,265.8926,94.19,0.00032352,3.771e-05,0.0,0 STARLINK-3090,1 49132U 21082C   24085.99997297  .00003771  00000-0  32352-3 0  9998,2 49132  69.9978 293.9430 0002916 265.8926  94.1900 14.98345776139072,6950.144,96.106,574.036,569.982,0.0
49132.0,STARLINK-3090,PAYLOAD,2024-03-26 12:49:02,14.98350843,0.0002552,69.9992,292.5968,277.6467,82.4403,-0.00010362,-1.33e-05,0.0,0 STARLINK-3090,1 49132U 21082C   24086.53406146 -.00001330  00000-0 -10362-3 0  9995,2 49132  69.9992 292.5968 0002552 277.6467  82.4403 14.98350843139154,6950.128,96.106,573.767,570.22,0.0
49132.0,STARLINK-3090,PAYLOAD,2024-03-26 14:25:10,14.98350164,0.0002567,69.9991,292.4282,278.8072,81.2797,-0.00010386,-1.333e-05,0.0,0 STARLINK-3090,1 49132U 21082C   24086.60082148 -.00001333  00000-0 -10386-3 0  9994,2 49132  69.9991 292.4282 0002567 278.8072  81.2797 14.98350164139162,6950.131,96.106,573.78,570.211,0.0
49132.0,STARLINK-3090,PAYLOAD,2024-03-26 20:49:45,14.98265252,0.0002156,69.9985,291.7549,274.6244,85.4668,0.0012957,0.00015375,0.0,0 STARLINK-3090,1 49132U 21082C   24086.86788400  .00015375  00000-0  12957-2 0  9990,2 49132  69.9985 291.7549 0002156 274.6244  85.4668 14.98265252139203,6950.393,96.111,573.757,570.76,0.0
49132.0,STARLINK-3090,PAYLOAD,2024-03-26 22:25:52,14.98282648,0.00022,69.9986,291.5867,273.8717,86.2191,0.001001,0.00011856,0.0,0 STARLINK-3090,1 49132U 21082C   24086.93464108  .00011856  00000-0  10010-2 0  9992,2 49132  69.9986 291.5867 0002200 273.8717  86.2191 14.98282648139210,6950.339,96.11,573.733,570.675,0.0
49132.0,STARLINK-3090,PAYLOAD,2024-03-27 06:26:31,14.98368813,0.0002815,69.9986,290.7443,273.8028,86.2809,-0.00058067,-7.021e-05,0.0,0 STARLINK-3090,1 49132U 21082C   24087.26841512 -.00007021  00000-0 -58067-3 0  9993,2 49132  69.9986 290.7443 0002815 273.8028  86.2809 14.98368813139268,6950.073,96.105,573.894,569.981,0.0
49132.0,STARLINK-3090,PAYLOAD,2024-03-27 14:27:11,14.98341272,0.0002842,69.9981,289.9028,270.064,90.0194,-9.2232e-05,-1.194e-05,0.0,0 STARLINK-3090,1 49132U 21082C   24087.60222206 -.00001194  00000-0 -92232-4 0  9992,2 49132  69.9981 289.9028 0002842 270.0640  90.0194 14.98341272139317,6950.158,96.106,573.998,570.048,0.0
49132.0,STARLINK-3090,PAYLOAD,2024-03-27 20:51:44,14.98340364,0.0002782,69.9984,289.2297,267.8747,92.2094,-8.4144e-05,-1.097e-05,0.0,0 STARLINK-3090,1 49132U 21082C   24087.86926029 -.00001097  00000-0 -84144-4 0  9999,2 49132  69.9984 289.2297 0002782 267.8747  92.2094 14.98340364139354,6950.161,96.106,573.959,570.092,0.0
49132.0,STARLINK-3090,PAYLOAD,2024-03-27 22:27:51,14.98345872,0.0002445,69.9986,289.0609,258.3334,101.755,-0.00017874,-2.226e-05,0.0,0 STARLINK-3090,1 49132U 21082C   24087.93601828 -.00002226  00000-0 -17874-3 0  9994,2 49132  69.9986 289.0609 0002445 258.3334 101.7550 14.98345872139367,6950.144,96.106,573.708,570.309,0.0
49132.0,STARLINK-3090,PAYLOAD,2024-03-28 06:28:32,14.9834157,0.0002796,69.9983,288.2196,268.1315,91.9523,-0.00010722,-1.372e-05,0.0,0 STARLINK-3090,1 49132U 21082C   24088.26981727 -.00001372  00000-0 -10722-3 0  9996,2 49132  69.9983 288.2196 0002796 268.1315  91.9523 14.98341570139410,6950.157,96.106,573.965,570.079,0.0
49132.0,STARLINK-3090,PAYLOAD,2024-03-28 19:17:36,14.98321418,0.0002853,69.9985,286.873,266.2393,93.844,0.00024425,2.822e-05,0.0,0 STARLINK-3090,1 49132U 21082C   24088.80389911  .00002822  00000-0  24425-3 0  9997,2 49132  69.9985 286.8730 0002853 266.2393  93.8440 14.98321418139495,6950.219,96.108,574.067,570.102,0.0
